[Satellite]
VERSION=1.1
NAME=CZ-6A DEB
NICKNAME=CZ-6A DEB
TLE1=1 54457U 22151GH  22341.97777284  .00002695  00000+0  11963-2 0  9992
TLE2=2 54457  98.9773 348.0848 0097743 262.8175  96.1880 14.21362382  3430
STATUS=0
